NORAD_CAT_ID,OBJECT_NAME,OBJECT_TYPE,EPOCH,MEAN_MOTION,ECCENTRICITY,INCLINATION,RA_OF_ASC_NODE,ARG_OF_PERICENTER,MEAN_ANOMALY,BSTAR,MEAN_MOTION_DOT,MEAN_MOTION_DDOT,TLE_LINE0,TLE_LINE1,TLE_LINE2,SEMIMAJOR_AXIS,PERIOD,APOGEE,PERIGEE,DECAYED
53424.0,STARLINK-4532,PAYLOAD,2023-07-28 01:53:32,15.08825366,0.0001224,53.2162,84.0224,71.4669,288.6456,-0.00010652,-1.982e-05,0.0,0 STARLINK-4532,1 53424U 22097AN  23209.07884651 -.00001982  00000-0 -10652-3 0  9992,2 53424  53.2162  84.0224 0001224  71.4669 288.6456 15.08825366 53901,6917.925,95.438,540.637,538.943,0.0
53424.0,STARLINK-4532,PAYLOAD,2023-07-28 17:47:23,15.08850463,0.0001115,53.2159,81.0492,76.4121,283.6995,-0.00021049,-3.637e-05,0.0,0 STARLINK-4532,1 53424U 22097AN  23209.74123915 -.00003637  00000-0 -21049-3 0  9996,2 53424  53.2159  81.0492 0001115  76.4121 283.6995 15.08850463 54009,6917.848,95.437,540.485,538.942,0.0
53424.0,STARLINK-4532,PAYLOAD,2023-07-29 19:13:33,15.08853023,0.0001276,53.2158,76.2924,67.9337,292.1791,0.00056881,8.779e-05,0.0,0 STARLINK-4532,1 53424U 22097AN  23210.80107743  .00008779  00000-0  56881-3 0  9998,2 53424  53.2158  76.2924 0001276  67.9337 292.1791 15.08853023 54167,6917.841,95.437,540.588,538.823,0.0
53424.0,STARLINK-4532,PAYLOAD,2023-07-30 01:35:05,15.08871209,0.0001245,53.2158,75.103,68.5908,291.5217,0.00091697,0.00014348,0.0,0 STARLINK-4532,1 53424U 22097AN  23211.06603087  .00014348  00000-0  91697-3 0  9992,2 53424  53.2158  75.1030 0001245  68.5908 291.5217 15.08871209 54207,6917.785,95.436,540.511,538.789,0.0
53424.0,STARLINK-4532,PAYLOAD,2023-07-30 23:50:29,15.08847544,0.0001205,53.2153,70.9394,78.7737,281.3391,0.00011107,1.481e-05,0.0,0 STARLINK-4532,1 53424U 22097AN  23211.99339314  .00001481  00000-0  11107-3 0  9995,2 53424  53.2153  70.9394 0001205  78.7737 281.3391 15.08847544 54347,6917.857,95.437,540.556,538.889,0.0
53424.0,STARLINK-4532,PAYLOAD,2023-07-31 07:47:25,15.08837756,0.0001354,53.2155,69.4528,73.2518,286.8623,2.1076e-05,4.8e-07,0.0,0 STARLINK-4532,1 53424U 22097AN  23212.32459651  .00000048  00000-0  21076-4 0  9995,2 53424  53.2155  69.4528 0001354  73.2518 286.8623 15.08837756 54390,6917.887,95.438,540.689,538.816,0.0
53424.0,STARLINK-4532,PAYLOAD,2023-08-01 17:10:31,15.08838184,0.000118,53.2156,63.2068,77.9432,282.1692,0.00014355,1.997e-05,0.0,0 STARLINK-4532,1 53424U 22097AN  23213.71564239  .00001997  00000-0  14355-3 0  9993,2 53424  53.2156  63.2068 0001180  77.9432 282.1692 15.08838184 54600,6917.886,95.438,540.567,538.935,0.0
53424.0,STARLINK-4532,PAYLOAD,2023-08-02 07:28:59,15.08851779,0.0001202,53.2156,60.5307,75.7742,284.3384,0.0003907,5.938e-05,0.0,0 STARLINK-4532,1 53424U 22097AN  23214.31179755  .00005938  00000-0  39070-3 0  9995,2 53424  53.2156  60.5307 0001202  75.7742 284.3384 15.08851779 54697,6917.844,95.437,540.541,538.878,0.0
53424.0,STARLINK-4532,PAYLOAD,2023-08-03 18:27:28,15.08832825,9.18e-05,53.2155,53.9886,117.7131,242.3955,-0.00021751,-3.747e-05,0.0,0 STARLINK-4532,1 53424U 22097AN  23215.76907740 -.00003747  00000-0 -21751-3 0  9993,2 53424  53.2155  53.9886 0000918 117.7131 242.3955 15.08832825 54910,6917.902,95.438,540.402,539.132,0.0
53424.0,STARLINK-4532,PAYLOAD,2023-08-03 23:13:38,15.08821573,8.54e-05,53.2154,53.0971,98.037,262.0719,-0.00039401,-6.55e-05,0.0,0 STARLINK-4532,1 53424U 22097AN  23215.96780307 -.00006550  00000-0 -39401-3 0  9999,2 53424  53.2154  53.0971 0000854  98.0370 262.0719 15.08821573 54948,6917.937,95.439,540.393,539.211,0.0
53424.0,STARLINK-4532,PAYLOAD,2023-08-04 18:18:16,15.08829991,9.85e-05,53.2149,49.5259,84.3581,275.7524,6.5064e-05,7.48e-06,0.0,0 STARLINK-4532,1 53424U 22097AN  23216.76269121  .00000748  00000-0  65064-4 0  9990,2 53424  53.2149  49.5259 0000985  84.3581 275.7524 15.08829991 55069,6917.911,95.438,540.457,539.095,0.0
53424.0,STARLINK-4532,PAYLOAD,2023-08-04 23:04:25,15.08840196,0.0001214,53.217,48.6381,117.4281,242.6835,-5.4218e-05,-1.151e-05,0.0,0 STARLINK-4532,1 53424U 22097AN  23216.96140760 -.00001151  00000-0 -54218-4 0  9999,2 53424  53.2170  48.6381 0001214 117.4281 242.6835 15.08840196 55091,6917.88,95.438,540.585,538.905,0.0
53424.0,STARLINK-4532,PAYLOAD,2023-08-05 18:09:03,15.08863424,0.0001043,53.2164,45.0687,97.4687,262.6424,0.00093015,0.00014556,0.0,0 STARLINK-4532,1 53424U 22097AN  23217.75628737  .00014556  00000-0  93015-3 0  9990,2 53424  53.2164  45.0687 0001043  97.4687 262.6424 15.08863424 55210,6917.809,95.436,540.395,538.952,0.0
53424.0,STARLINK-4532,PAYLOAD,2023-08-06 05:16:44,15.08861143,0.0001074,53.2161,42.9857,69.6675,290.4433,0.00037512,5.691e-05,0.0,0 STARLINK-4532,1 53424U 22097AN  23218.21996340  .00005691  00000-0  37512-3 0  9990,2 53424  53.2161  42.9857 0001074  69.6675 290.4433 15.08861143 55286,6917.816,95.436,540.424,538.938,0.0
53424.0,STARLINK-4532,PAYLOAD,2023-08-06 17:59:50,15.08828017,0.0001022,53.2172,40.6082,74.3712,285.7393,-0.0002107,-3.638e-05,0.0,0 STARLINK-4532,1 53424U 22097AN  23218.74989075 -.00003638  00000-0 -21070-3 0  9998,2 53424  53.2172  40.6082 0001022  74.3712 285.7393 15.08828017 55365,6917.917,95.438,540.489,539.075,0.0
53424.0,STARLINK-4532,PAYLOAD,2023-08-07 13:04:29,15.08837032,0.0001069,53.2173,37.0401,68.703,291.4076,0.00096437,0.00015092,0.0,0 STARLINK-4532,1 53424U 22097AN  23219.54478100  .00015092  00000-0  96437-3 0  9993,2 53424  53.2173  37.0401 0001069  68.7030 291.4076 15.08837032 55484,6917.889,95.438,540.494,539.015,0.0
53424.0,STARLINK-4532,PAYLOAD,2023-08-08 17:41:24,15.08867223,0.0001074,53.2166,31.6873,62.5163,297.5938,0.00085205,0.00013308,0.0,0 STARLINK-4532,1 53424U 22097AN  23220.73709042  .00013308  00000-0  85205-3 0  9997,2 53424  53.2166  31.6873 0001074  62.5163 297.5938 15.08867223 55663,6917.797,95.436,540.405,538.919,0.0
53424.0,STARLINK-4532,PAYLOAD,2023-08-09 04:49:06,15.08852002,0.0001834,53.2166,29.6056,73.7406,286.3788,0.00016618,2.358e-05,0.0,0 STARLINK-4532,1 53424U 22097AN  23221.20077044  .00002358  00000-0  16618-3 0  9995,2 53424  53.2166  29.6056 0001834  73.7406 286.3788 15.08852002 55737,6917.844,95.437,540.977,538.44,0.0
53424.0,STARLINK-4532,PAYLOAD,2023-08-10 11:01:26,15.08839101,0.0001113,53.2163,23.9561,76.2612,283.8504,-3.0336e-05,-7.71e-06,0.0,0 STARLINK-4532,1 53424U 22097AN  23222.45933066 -.00000771  00000-0 -30336-4 0  9991,2 53424  53.2163  23.9561 0001113  76.2612 283.8504 15.08839101 55923,6917.883,95.438,540.518,538.978,0.0
53424.0,STARLINK-4532,PAYLOAD,2023-08-11 17:13:45,15.08846595,0.0001014,53.2172,18.306,85.5069,274.6039,0.0002178,3.181e-05,0.0,0 STARLINK-4532,1 53424U 22097AN  23223.71788824  .00003181  00000-0  21780-3 0  9999,2 53424  53.2172  18.3060 0001014  85.5069 274.6039 15.08846595 56112,6917.86,95.437,540.427,539.024,0.0
53424.0,STARLINK-4532,PAYLOAD,2023-08-12 10:43:00,15.08839566,0.0001052,53.2154,15.0337,86.0787,274.0326,9.577e-05,1.237e-05,0.0,0 STARLINK-4532,1 53424U 22097AN  23224.44653131  .00001237  00000-0  95770-4 0  9993,2 53424  53.2154  15.0337 0001052  86.0787 274.0326 15.08839566 56223,6917.882,95.438,540.474,539.019,0.0
53424.0,STARLINK-4532,PAYLOAD,2023-08-12 17:04:32,15.08848815,0.0001249,53.2152,13.8438,87.0409,273.0726,0.00021324,3.108e-05,0.0,0 STARLINK-4532,1 53424U 22097AN  23224.71148661  .00003108  00000-0  21324-3 0  9992,2 53424  53.2152  13.8438 0001249  87.0409 273.0726 15.08848815 56263,6917.853,95.437,540.582,538.854,0.0
53424.0,STARLINK-4532,PAYLOAD,2023-08-13 10:33:47,15.08832175,0.000118,53.2162,10.5733,87.0921,273.0206,-0.00012416,-2.263e-05,0.0,0 STARLINK-4532,1 53424U 22097AN  23225.44013436 -.00002263  00000-0 -12416-3 0  9999,2 53424  53.2162  10.5733 0001180  87.0921 273.0206 15.08832175 56376,6917.904,95.438,540.586,538.953,0.0
53424.0,STARLINK-4532,PAYLOAD,2023-08-14 02:27:38,15.08839431,0.0001062,53.2177,7.6007,90.3479,269.7635,-4.3586e-05,-9.81e-06,0.0,0 STARLINK-4532,1 53424U 22097AN  23226.10253160 -.00000981  00000-0 -43586-4 0  9991,2 53424  53.2177   7.6007 0001062  90.3479 269.7635 15.08839431 56478,6917.882,95.438,540.482,539.012,0.0
53424.0,STARLINK-4532,PAYLOAD,2023-08-14 21:32:15,15.0884995,0.0001462,53.2167,4.0319,95.0248,265.0911,0.00019073,2.75e-05,0.0,0 STARLINK-4532,1 53424U 22097AN  23226.89740711  .00002750  00000-0  19073-3 0  9997,2 53424  53.2167   4.0319 0001462  95.0248 265.0911 15.08849950 56590,6917.85,95.437,540.726,538.704,0.0
53424.0,STARLINK-4532,PAYLOAD,2023-08-15 10:15:21,15.08833037,5.05e-05,53.2174,1.6529,109.3158,250.7888,8.6744e-05,1.093e-05,0.0,0 STARLINK-4532,1 53424U 22097AN  23227.42733329  .00001093  00000-0  86744-4 0  9993,2 53424  53.2174   1.6529 0000505 109.3158 250.7888 15.08833037 56672,6917.902,95.438,540.116,539.417,0.0
53424.0,STARLINK-4532,PAYLOAD,2023-08-16 02:09:12,15.08847709,8.86e-05,53.2168,358.678,88.6616,271.4478,0.00016358,2.317e-05,0.0,0 STARLINK-4532,1 53424U 22097AN  23228.08972778  .00002317  00000-0  16358-3 0  9992,2 53424  53.2168 358.6780 0000886  88.6616 271.4478 15.08847709 56776,6917.857,95.437,540.335,539.109,0.0
53424.0,STARLINK-4532,PAYLOAD,2023-08-17 02:00:00,15.08841612,0.0001546,53.2158,354.218,88.5845,271.5324,0.00022067,3.226e-05,0.0,0 STARLINK-4532,1 53424U 22097AN  23229.08333424  .00003226  00000-0  22067-3 0  9996,2 53424  53.2158 354.2180 0001546  88.5845 271.5324 15.08841612 56923,6917.875,95.437,540.81,538.671,0.0
53424.0,STARLINK-4532,PAYLOAD,2023-08-18 08:12:19,15.08838081,0.0001403,53.2148,348.5701,81.6123,278.5028,7.2049e-05,8.59e-06,0.0,0 STARLINK-4532,1 53424U 22097AN  23230.34189703  .00000859  00000-0  72049-4 0  9991,2 53424  53.2148 348.5701 0001403  81.6123 278.5028 15.08838081 57118,6917.886,95.438,540.722,538.781,0.0
53424.0,STARLINK-4532,PAYLOAD,2023-08-19 17:35:25,15.08843953,0.0002226,53.2168,342.3251,112.0546,248.0683,0.0001588,2.24e-05,0.0,0 STARLINK-4532,1 53424U 22097AN  23231.73293160  .00002240  00000-0  15880-3 0  9993,2 53424  53.2168 342.3251 0002226 112.0546 248.0683 15.08843953 57320,6917.868,95.437,541.273,538.193,0.0
